{"type": "FeatureCollection", "features": [ {"type": "Feature", "properties": {"norad_id": 40938, "name": "BEIDOU-3S IGSO-2S (C56)", "group": "gnss", "lat": 32.9176502172893, "lon": 47.30987953551961, "alt_km": 35632.12414461186, "timestamp": "2025-12-26T13:39:19.217156+00:00", "meta": {"OBJECT_NAME": "BEIDOU-3S IGSO-2S (C56)", "OBJECT_ID": "2015-053A", "EPOCH": "2025-12-26T06:00:23.194944", "MEAN_MOTION": 1.00267028, "ECCENTRICITY": 0.0060661, "INCLINATION": 49.4896, "RA_OF_ASC_NODE": 260.8471, "ARG_OF_PERICENTER": 188.3782, "MEAN_ANOMALY": 191.6078, "EPHEMERIS_TYPE": 0, "CLASSIFICATION_TYPE": "U", "NORAD_CAT_ID": 40938, "ELEMENT_SET_NO": 999, "REV_AT_EPOCH": 3762, "BSTAR": 0, "MEAN_MOTION_DOT": -1.23e-06, "MEAN_MOTION_DDOT": 0}, "tle": {"line1": "1 40938U 15053A   25360.25026846 -.00000123  00000+0  00000+0 0  9992", "line2": "2 40938  49.4896 260.8471 0060661 188.3782 191.6078  1.00267028 37626"}}, "geometry": {"type": "Point", "coordinates": [47.30987953551961, 32.9176502172893]}}, {"type": "Feature", "properties": {"norad_id": 41019, "name": "GPS BIIF-11 (PRN 10)", "group": "gnss", "lat": -27.536018503974972, "lon": -122.59952736677604, "alt_km": 19902.348479752116, "timestamp": "2025-12-26T13:39:19.217187+00:00", "meta": {"OBJECT_NAME": "GPS BIIF-11 (PRN 10)", "OBJECT_ID": "2015-062A", "EPOCH": "2025-12-26T06:30:53.632512", "MEAN_MOTION": 2.00567029, "ECCENTRICITY": 0.01111286, "INCLINATION": 56.842, "RA_OF_ASC_NODE": 37.479, "ARG_OF_PERICENTER": 230.2895, "MEAN_ANOMALY": 128.7854, "EPHEMERIS_TYPE": 0, "CLASSIFICATION_TYPE": "U", "NORAD_CAT_ID": 41019, "ELEMENT_SET_NO": 999, "REV_AT_EPOCH": 7436, "BSTAR": 0, "MEAN_MOTION_DOT": -4.9e-07, "MEAN_MOTION_DDOT": 0}, "tle": {"line1": "1 41019U 15062A   25360.27145408 -.00000049  00000+0  00000+0 0  9998", "line2": "2 41019  56.8420  37.4790 0111128 230.2895 128.7854  2.00567029 74361"}}, "geometry": {"type": "Point", "coordinates": [-122.59952736677604, -27.536018503974972]}}, {"type": "Feature", "properties": {"norad_id": 41028, "name": "GSAT-15 (GAGAN/PRN 139)", "group": "gnss", "lat": 0.020930609150772203, "lon": 33.657096468842596, "alt_km": 35795.23379753496, "timestamp": "2025-12-26T13:39:19.217203+00:00", "meta": {"OBJECT_NAME": "GSAT-15 (GAGAN/PRN 139)", "OBJECT_ID": "2015-065A", "EPOCH": "2025-12-26T00:05:38.530752", "MEAN_MOTION": 1.00270739, "ECCENTRICITY": 0.00024039, "INCLINATION": 0.0162, "RA_OF_ASC_NODE": 309.5536, "ARG_OF_PERICENTER": 293.7172, "MEAN_ANOMALY": 306.4055, "EPHEMERIS_TYPE": 0, "CLASSIFICATION_TYPE": "U", "NORAD_CAT_ID": 41028, "ELEMENT_SET_NO": 999, "REV_AT_EPOCH": 3706, "BSTAR": 0, "MEAN_MOTION_DOT": -2.36e-06, "MEAN_MOTION_DDOT": 0}, "tle": {"line1": "1 41028U 15065A   25360.00391818 -.00000236  00000+0  00000+0 0  9998", "line2": "2 41028   0.0162 309.5536 0002403 293.7172 306.4055  1.00270739 37065"}}, "geometry": {"type": "Point", "coordinates": [33.657096468842596, 0.020930609150772203]}}, {"type": "Feature", "properties": {"norad_id": 41174, "name": "GSAT0209 (GALILEO 12)", "group": "gnss", "lat": -7.1975539671862245, "lon": 101.06684053203473, "alt_km": 23215.934107478035, "timestamp": "2025-12-26T13:39:19.217216+00:00", "meta": {"OBJECT_NAME": "GSAT0209 (GALILEO 12)", "OBJECT_ID": "2015-079A", "EPOCH": "2025-12-21T21:22:17.332896", "MEAN_MOTION": 1.70474556, "ECCENTRICITY": 0.00025231, "INCLINATION": 55.7178, "RA_OF_ASC_NODE": 106.13, "ARG_OF_PERICENTER": 342.7574, "MEAN_ANOMALY": 17.2091, "EPHEMERIS_TYPE": 0, "CLASSIFICATION_TYPE": "U", "NORAD_CAT_ID": 41174, "ELEMENT_SET_NO": 999, "REV_AT_EPOCH": 6175, "BSTAR": 0, "MEAN_MOTION_DOT": 5e-08, "MEAN_MOTION_DDOT": 0}, "tle": {"line1": "1 41174U 15079A   25355.89047839  .00000005  00000+0  00000+0 0  9990", "line2": "2 41174  55.7178 106.1300 0002523 342.7574  17.2091  1.70474556 61755"}}, "geometry": {"type": "Point", "coordinates": [101.06684053203473, -7.1975539671862245]}}, {"type": "Feature", "properties": {"norad_id": 41175, "name": "GSAT0208 (GALILEO 11)", "group": "gnss", "lat": -29.203318346155637, "lon": -51.62156300283631, "alt_km": 23229.79757655372, "timestamp": "2025-12-26T13:39:19.217227+00:00", "meta": {"OBJECT_NAME": "GSAT0208 (GALILEO 11)", "OBJECT_ID": "2015-079B", "EPOCH": "2025-12-24T10:58:05.169792", "MEAN_MOTION": 1.70474188, "ECCENTRICITY": 0.0001919, "INCLINATION": 55.7178, "RA_OF_ASC_NODE": 106.0566, "ARG_OF_PERICENTER": 349.2148, "MEAN_ANOMALY": 10.7717, "EPHEMERIS_TYPE": 0, "CLASSIFICATION_TYPE": "U", "NORAD_CAT_ID": 41175, "ELEMENT_SET_NO": 999, "REV_AT_EPOCH": 6221, "BSTAR": 0, "MEAN_MOTION_DOT": 1.6e-07, "MEAN_MOTION_DDOT": 0}, "tle": {"line1": "1 41175U 15079B   25358.45700428  .00000016  00000+0  00000+0 0  9998", "line2": "2 41175  55.7178 106.0566 0001919 349.2148  10.7717  1.70474188 62212"}}, "geometry": {"type": "Point", "coordinates": [-51.62156300283631, -29.203318346155637]}}, {"type": "Feature", "properties": {"norad_id": 41241, "name": "IRNSS-1E", "group": "gnss", "lat": -5.634823497567812, "lon": 53.49632896090634, "alt_km": 35873.96758871531, "timestamp": "2025-12-26T13:39:19.217238+00:00", "meta": {"OBJECT_NAME": "IRNSS-1E", "OBJECT_ID": "2016-003A", "EPOCH": "2025-12-24T15:55:26.719680", "MEAN_MOTION": 1.0026854, "ECCENTRICITY": 0.00215442, "INCLINATION": 32.8513, "RA_OF_ASC_NODE": 62.279, "ARG_OF_PERICENTER": 188.9872, "MEAN_ANOMALY": 192.7105, "EPHEMERIS_TYPE": 0, "CLASSIFICATION_TYPE": "U", "NORAD_CAT_ID": 41241, "ELEMENT_SET_NO": 999, "REV_AT_EPOCH": 3633, "BSTAR": 0, "MEAN_MOTION_DOT": -2.92e-06, "MEAN_MOTION_DDOT": 0}, "tle": {"line1": "1 41241U 16003A   25358.66350370 -.00000292  00000+0  00000+0 0  9997", "line2": "2 41241  32.8513  62.2790 0021544 188.9872 192.7105  1.00268540 36337"}}, "geometry": {"type": "Point", "coordinates": [53.49632896090634, -5.634823497567812]}}, {"type": "Feature", "properties": {"norad_id": 41328, "name": "GPS BIIF-12 (PRN 32)", "group": "gnss", "lat": 21.94548702257709, "lon": -99.80624014151824, "alt_km": 20181.443380543864, "timestamp": "2025-12-26T13:39:19.217250+00:00", "meta": {"OBJECT_NAME": "GPS BIIF-12 (PRN 32)", "OBJECT_ID": "2016-007A", "EPOCH": "2025-12-25T20:32:16.174464", "MEAN_MOTION": 2.00559967, "ECCENTRICITY": 0.00928247, "INCLINATION": 55.4133, "RA_OF_ASC_NODE": 96.3364, "ARG_OF_PERICENTER": 243.9276, "MEAN_ANOMALY": 115.1304, "EPHEMERIS_TYPE": 0, "CLASSIFICATION_TYPE": "U", "NORAD_CAT_ID": 41328, "ELEMENT_SET_NO": 999, "REV_AT_EPOCH": 7236, "BSTAR": 0, "MEAN_MOTION_DOT": 1.1e-07, "MEAN_MOTION_DDOT": 0}, "tle": {"line1": "1 41328U 16007A   25359.85574276  .00000011  00000+0  00000+0 0  9990", "line2": "2 41328  55.4133  96.3364 0092824 243.9276 115.1304  2.00559967 72366"}}, "geometry": {"type": "Point", "coordinates": [-99.80624014151824, 21.94548702257709]}}, {"type": "Feature", "properties": {"norad_id": 41330, "name": "COSMOS 2514 (751)", "group": "gnss", "lat": -19.641512592616067, "lon": -50.606956806953995, "alt_km": 19146.713765521083, "timestamp": "2025-12-26T13:39:19.217262+00:00", "meta": {"OBJECT_NAME": "COSMOS 2514 (751)", "OBJECT_ID": "2016-008A", "EPOCH": "2025-12-26T03:04:27.973056", "MEAN_MOTION": 2.13102553, "ECCENTRICITY": 0.00115404, "INCLINATION": 65.126, "RA_OF_ASC_NODE": 318.9457, "ARG_OF_PERICENTER": 220.0269, "MEAN_ANOMALY": 139.8925, "EPHEMERIS_TYPE": 0, "CLASSIFICATION_TYPE": "U", "NORAD_CAT_ID": 41330, "ELEMENT_SET_NO": 999, "REV_AT_EPOCH": 7693, "BSTAR": 0, "MEAN_MOTION_DOT": -3.4e-07, "MEAN_MOTION_DDOT": 0}, "tle": {"line1": "1 41330U 16008A   25360.12810154 -.00000034  00000+0  00000+0 0  9990", "line2": "2 41330  65.1260 318.9457 0011540 220.0269 139.8925  2.13102553 76936"}}, "geometry": {"type": "Point", "coordinates": [-50.606956806953995, -19.641512592616067]}}, {"type": "Feature", "properties": {"norad_id": 41384, "name": "IRNSS-1F", "group": "gnss", "lat": -3.8841509952890827, "lon": -27.19172411291072, "alt_km": 35722.29765715632, "timestamp": "2025-12-26T13:39:19.217278+00:00", "meta": {"OBJECT_NAME": "IRNSS-1F", "OBJECT_ID": "2016-015A", "EPOCH": "2025-12-24T23:31:33.658752", "MEAN_MOTION": 1.00278532, "ECCENTRICITY": 0.00226614, "INCLINATION": 4.9118, "RA_OF_ASC_NODE": 100.9953, "ARG_OF_PERICENTER": 182.2729, "MEAN_ANOMALY": 195.8977, "EPHEMERIS_TYPE": 0, "CLASSIFICATION_TYPE": "U", "NORAD_CAT_ID": 41384, "ELEMENT_SET_NO": 999, "REV_AT_EPOCH": 3592, "BSTAR": 0, "MEAN_MOTION_DOT": 1.78e-06, "MEAN_MOTION_DDOT": 0}, "tle": {"line1": "1 41384U 16015A   25358.98025068  .00000178  00000+0  00000+0 0  9998", "line2": "2 41384   4.9118 100.9953 0022661 182.2729 195.8977  1.00278532 35923"}}, "geometry": {"type": "Point", "coordinates": [-27.19172411291072, -3.8841509952890827]}}, {"type": "Feature", "properties": {"norad_id": 41434, "name": "BEIDOU-2 IGSO-6 (C13)", "group": "gnss", "lat": -4.665496554934183, "lon": 37.08534491367619, "alt_km": 35924.93978370339, "timestamp": "2025-12-26T13:39:19.217292+00:00", "meta": {"OBJECT_NAME": "BEIDOU-2 IGSO-6 (C13)", "OBJECT_ID": "2016-021A", "EPOCH": "2025-12-25T02:21:14.682240", "MEAN_MOTION": 1.00290736, "ECCENTRICITY": 0.00608236, "INCLINATION": 59.9818, "RA_OF_ASC_NODE": 39.7747, "ARG_OF_PERICENTER": 230.5129, "MEAN_ANOMALY": 312.5474, "EPHEMERIS_TYPE": 0, "CLASSIFICATION_TYPE": "U", "NORAD_CAT_ID": 41434, "ELEMENT_SET_NO": 999, "REV_AT_EPOCH": 3573, "BSTAR": 0, "MEAN_MOTION_DOT": -1.35e-06, "MEAN_MOTION_DDOT": 0}, "tle": {"line1": "1 41434U 16021A   25359.09808660 -.00000135  00000+0  00000+0 0  9995", "line2": "2 41434  59.9818  39.7747 0060823 230.5129 312.5474  1.00290736 35738"}}, "geometry": {"type": "Point", "coordinates": [37.08534491367619, -4.665496554934183]}}]}